AMAZONIA 1              
1 47699U 21015A   25364.75838581  .00000447  00000+0  15330-3 0  9998
2 47699  98.3721  75.0877 0001124  97.3772 262.7545 14.40772474254398
