<?xml version="1.0" encoding="utf-8"?>
<ndm xmlns:xsi="http://www.w3.org/2001/XMLSchema-instance" xsi:noNamespaceSchemaLocation="https://sanaregistry.org/r/ndmxml_unqualified/ndmxml-3.0.0-master-3.0.xsd"><omm id="CCSDS_OMM_VERS" version="3.0"><header><COMMENT>GENERATED VIA SPACE-TRACK.ORG API</COMMENT><CREATION_DATE>2025-12-30T23:36:37</CREATION_DATE><ORIGINATOR>18 SPCS</ORIGINATOR></header><body><segment><metadata><OBJECT_NAME>AMAZONIA 1</OBJECT_NAME><OBJECT_ID>2021-015A</OBJECT_ID><CENTER_NAME>EARTH</CENTER_NAME><REF_FRAME>TEME</REF_FRAME><TIME_SYSTEM>UTC</TIME_SYSTEM><MEAN_ELEMENT_THEORY>SGP4</MEAN_ELEMENT_THEORY></metadata><data><meanElements><EPOCH>2025-12-30T18:12:04.533984</EPOCH><MEAN_MOTION>14.40772474</MEAN_MOTION><ECCENTRICITY>0.00011240</ECCENTRICITY><INCLINATION>98.3721</INCLINATION><RA_OF_ASC_NODE>75.0877</RA_OF_ASC_NODE><ARG_OF_PERICENTER>97.3772</ARG_OF_PERICENTER><MEAN_ANOMALY>262.7545</MEAN_ANOMALY></meanElements><tleParameters><EPHEMERIS_TYPE>0</EPHEMERIS_TYPE><CLASSIFICATION_TYPE>U</CLASSIFICATION_TYPE><NORAD_CAT_ID>47699</NORAD_CAT_ID><ELEMENT_SET_NO>999</ELEMENT_SET_NO><REV_AT_EPOCH>25439</REV_AT_EPOCH><BSTAR>0.00015330000000</BSTAR><MEAN_MOTION_DOT>0.00000447</MEAN_MOTION_DOT><MEAN_MOTION_DDOT>0.0000000000000</MEAN_MOTION_DDOT></tleParameters><userDefinedParameters><USER_DEFINED parameter="SEMIMAJOR_AXIS">7134.084</USER_DEFINED><USER_DEFINED parameter="PERIOD">99.946</USER_DEFINED><USER_DEFINED parameter="APOAPSIS">756.751</USER_DEFINED><USER_DEFINED parameter="PERIAPSIS">755.147</USER_DEFINED><USER_DEFINED parameter="OBJECT_TYPE">PAYLOAD</USER_DEFINED><USER_DEFINED parameter="RCS_SIZE">LARGE</USER_DEFINED><USER_DEFINED parameter="COUNTRY_CODE">BRAZ</USER_DEFINED><USER_DEFINED parameter="LAUNCH_DATE">2021-02-28</USER_DEFINED><USER_DEFINED parameter="SITE">SRI</USER_DEFINED><USER_DEFINED parameter="DECAY_DATE"/><USER_DEFINED parameter="FILE">4946249</USER_DEFINED><USER_DEFINED parameter="GP_ID">307230979</USER_DEFINED></userDefinedParameters></data></segment></body></omm></ndm>
